1 20335U 89093A   94089.03243001  .00010206  00000-0  13727-3 0  8772
2 20335  51.6469 223.0348 0015402  86.4870 273.6755 15.58422645463698
1 20335U 89093A   94089.86606755 0.00016287  00000+0  21476-3 0  8787
2 20335  51.6449 218.8537 0015375  89.4327 270.8291 15.58441619463828
1 20335U 89093A   94091.02028733  .00004605  00000-0  65585-4 0  8784
2 20335  51.6468 213.0625 0015564  94.9512 265.2480 15.58451319464008
1 20335U 89093A   94091.02028733 0.00004872  00000+0  65584-4 0  8799
2 20335  51.6468 213.0624 0015564  94.9511 265.2480 15.58451318464005
1 20335U 89093A   94091.85390548 0.00013614  00000+0  18051-3 0  8796
2 20335  51.6458 208.8803 0015383  97.3244 262.9262 15.58461563464133
1 20335U 89093A   94092.81574856 0.00001818  00000+0  26592-4 0  8804
2 20335  51.6454 204.0560 0015623  98.5891 261.6119 15.58458941464284
1 20335U 89093A   94093.84173264 0.00014619  00000+0  19316-3 0  8804
2 20335  51.6449 198.9077 0015390 104.2278 256.0861 15.58484010464443
1 20335U 89093A   94094.80354901 0.00027649  00000+0  35832-3 0  8819
2 20335  51.6464 194.0826 0015360 108.3410 251.8999 15.58517518464590
1 20335U 89093A   94095.82946772 0.00008680  00000+0  11733-3 0  8824
2 20335  51.6467 188.9336 0015542 110.0385 250.0533 15.58511821464758
1 20335U 89093A   94096.79130926 0.00020437  00000+0  26668-3 0  8835
2 20335  51.6461 184.1090 0015342 115.1963 245.0516 15.58535575464907
1 20335U 89093A   94096.79130926  .00020437  00000-0  26669-3 0  8837
2 20335  51.6461 184.1091 0015342 115.1963 245.0516 15.58535572464905
1 20335U 89093A   94098.13780813 0.00023804  00000+0  30911-3 0  8849
2 20335  51.6461 177.3512 0015651 120.4365 239.6443 15.58555203465110
1 20335U 89093A   94098.13780813  .00023804  00000-0  30911-3 0  8840
2 20335  51.6461 177.3513 0015651 120.4366 239.6443 15.58555204465113
1 20335U 89093A   94098.84314293 0.00013916  00000+0  18369-3 0  8859
2 20335  51.6462 173.8140 0015475 119.8883 240.2680 15.58553714465228
1 20335U 89093A   94098.84314293  .00013913  00000-0  18370-3 0  8859
2 20335  51.6462 173.8141 0015475 119.8884 240.2680 15.58553712465228
1 20335U 89093A   94099.74082304 0.00022284  00000+0  28965-3 0  8866
2 20335  51.6467 169.3113 0015295 125.5965 234.6261 15.58577703465369
1 20335U 89093A   94101.08728453  .00014322  00000-0  18861-3 0  8868
2 20335  51.6465 162.5564 0015414 129.8405 230.2304 15.58594006465579
1 20335U 89093A   94101.08728453 0.00014322  00000+0  18860-3 0  8877
2 20335  51.6465 162.5563 0015414 129.8405 230.2304 15.58594009465571
1 20335U 89093A   94102.11318591  .00005618  00000-0  78078-4 0  8877
2 20335  51.6456 157.4075 0015815 133.6484 226.5210 15.58602150465736
1 20335U 89093A   94102.81848503  .00012732  00000-0  16827-3 0  8884
2 20335  51.6448 153.8681 0015741 136.6484 223.5653 15.58615340465846
1 20335U 89093A   94102.81848503 0.00012732  00000+0  16826-3 0  8882
2 20335  51.6448 153.8680 0015741 136.6484 223.5653 15.58615339465843
1 20335U 89093A   94103.97257665 0.00013671  00000+0  18011-3 0  8895
2 20335  51.6449 148.0764 0015154 139.9352 220.2171 15.58632672466020
1 20335U 89093A   94103.97257665  .00013670  00000-0  18011-3 0  8895
2 20335  51.6449 148.0765 0015154 139.9353 220.2171 15.58632674466024
1 20335U 89093A   94104.87020412 0.00227899  00000+0  28223-2 0  8909
2 20335  51.6454 143.5759 0014953 143.4772 216.6752 15.58652410466163
1 20335U 89093A   94104.87020412  .00227890  00000-0  28223-2 0  8901
2 20335  51.6454 143.5760 0014953 143.4773 216.6752 15.58652408466163
1 20335U 89093A   94106.08840648  .00012809  00000-0  16896-3 0  8914
2 20335  51.6457 137.4590 0015705 147.8915 212.3035 15.58660724466359
1 20335U 89093A   94106.08840648 0.00012809  00000+0  16895-3 0  8923
2 20335  51.6457 137.4589 0015705 147.8914 212.3035 15.58660723466355
1 20335U 89093A   94106.85777973 0.00010751  00000+0  14290-3 0  8929
2 20335  51.6446 133.5971 0015456 150.7701 209.3700 15.58667209466479
1 20335U 89093A   94106.85777973  .00010751  00000-0  14291-3 0  8921
2 20335  51.6446 133.5972 0015456 150.7701 209.3700 15.58667211466473
1 20335U 89093A   94107.94772722 0.00009531  00000+0  12736-3 0  8935
2 20335  51.6448 128.1261 0015343 155.0462 205.0993 15.58685230466640
1 20335U 89093A   94107.94772722  .00009529  00000-0  12737-3 0  8934
2 20335  51.6448 128.1262 0015343 155.0463 205.0993 15.58685231466643
1 20335U 89093A   94109.03765981 0.00009476  00000+0  12659-3 0  8949
2 20335  51.6449 122.6567 0015027 158.5642 201.5765 15.58704380466811
1 20335U 89093A   94110.06347218  .00002463  00000-0  37865-4 0  8940
2 20335  51.6445 117.5087 0014868 162.7039 197.4333 15.58705318466979
1 20335U 89093A   94110.06347218 0.00002728  00000+0  37864-4 0  8964
2 20335  51.6445 117.5086 0014868 162.7039 197.4333 15.58705320466971
1 20335U 89093A   94111.08928061 0.00003851  00000+0  52044-4 0  8952
2 20335  51.6446 112.3606 0015301 166.6997 193.4656 15.58718454467137
1 20335U 89093A   94111.08928061  .00003585  00000-0  52045-4 0  8958
2 20335  51.6446 112.3607 0015301 166.6997 193.4656 15.58718455467139
1 20335U 89093A   94112.88441651 0.00014839  00000+0  19407-3 0  8960
2 20335  51.6447 103.3519 0014915 172.7105 187.4432 15.58751864467418
1 20335U 89093A   94112.88441651  .00014840  00000-0  19408-3 0  8964
2 20335  51.6447 103.3520 0014915 172.7106 187.4432 15.58751864467411
1 20335U 89093A   94114.03839717 -.00003269  00000-0 -34796-4 0  8971
2 20335  51.6427  97.5636 0013820 177.7203 182.2639 15.58742815467595
1 20335U 89093A   94114.93598073 0.00018230  00000+0  23659-3 0  8984
2 20335  51.6449  93.0540 0014969 180.1738 180.0031 15.58777264467734
1 20335U 89093A   94114.93598073  .00018232  00000-0  23659-3 0  8987
2 20335  51.6449  93.0541 0014969 180.1738 180.0031 15.58777265467736
1 20335U 89093A   94116.85922365 0.00011937  00000+0  15720-3 0  8990
2 20335  51.6452  83.3990 0014938 186.4128 173.3935 15.58793716468039
1 20335U 89093A   94118.01323045 -.00018690  00000+0 -23409-3 0  9001
2 20335  51.6472  77.6077 0014553 193.7553 166.2250 15.58775818468213
1 20335U 89093A   94118.01323045 -.00018993  00000-0 -23410-3 0  9000
2 20335  51.6472  77.6078 0014553 193.7554 166.2250 15.58775818468215
1 20335U 89093A   94118.97490738  .00000246  00000-0  97342-5 0  9017
2 20335  51.6453  72.7834 0014319 195.6728 164.5388 15.58804687468360
1 20335U 89093A   94118.97490739 0.00000509  00000+0  97341-5 0  9018
2 20335  51.6453  72.7833 0014319 195.6727 164.5388 15.58804687468368
1 20335U 89093A   94119.80829521 0.00009309  00000+0  12400-3 0  9025
2 20335  51.6461  68.5987 0014551 198.3543 161.7164 15.58820762468491
1 20335U 89093A   94119.80829521  .00009309  00000-0  12401-3 0  9027
2 20335  51.6461  68.5988 0014551 198.3543 161.7164 15.58820762468492
1 20335U 89093A   94120.89813151 -.00004353  00000-0 -48375-4 0  9037
2 20335  51.6464  63.1289 0014487 203.7537 156.2613 15.58816656468666
1 20335U 89093A   94120.89813463 -.00004090  00000+0 -48374-4 0  9051
2 20335  51.6464  63.1288 0014487 203.7536 156.2789 15.58816656468668
1 20335U 89093A   94121.92387232 -.00001508  00000-0 -12428-4 0  9048
2 20335  51.6458  57.9807 0014191 207.4788 152.6046 15.58829675468820
1 20335U 89093A   94121.92387232 -.00001245  00000+0 -12427-4 0  9066
2 20335  51.6458  57.9806 0014191 207.4787 152.6046 15.58829674468827
1 20335U 89093A   94123.07780508 0.00005911  00000+0  77701-4 0  9054
2 20335  51.6463  52.1877 0014681 210.9267 149.1889 15.58858482469000
1 20335U 89093A   94123.07780508  .00005644  00000-0  77702-4 0  9059
2 20335  51.6463  52.1878 0014681 210.9267 149.1889 15.58858483469002
1 20335U 89093A   94123.78295884  .00012509  00000-0  16389-3 0  9067
2 20335  51.6454  48.6463 0014580 212.9717 147.0784 15.58886394469117
1 20335U 89093A   94124.10347847 0.00012884  00000+0  16858-3 0  9078
2 20335  51.6457  47.0377 0014574 215.0958 144.8963 15.58892813469163
1 20335U 89093A   94124.10347847  .00012886  00000-0  16858-3 0  9071
2 20335  51.6457  47.0378 0014574 215.0958 144.8963 15.58892811469162
1 20335U 89093A   94124.87273920  .00004421  00000-0  62244-4 0  9083
2 20335  51.6466  43.1764 0014395 219.2424 140.7110 15.58892203469280
1 20335U 89093A   94124.87273920  .00004421  00000-0  62244-4 0  9094
2 20335  51.6466  43.1764 0014395 219.2424 140.7110 15.58892203469280
1 20335U 89093A   94124.87273921 0.00004688  00000+0  62243-4 0  9087
2 20335  51.6466  43.1763 0014395 219.2424 140.7110 15.58892201469287
1 20335U 89093A   94125.96253386 0.00004086  00000+0  54683-4 0  9105
2 20335  51.6470  37.7057 0014191 223.8229 136.1646 15.58902444469458
1 20335U 89093A   94127.11641897  .00000076  00000-0  75550-5 0  9105
2 20335  51.6466  31.9150 0014528 228.4070 131.6071 15.58914643469638
1 20335U 89093A   94127.11641897 0.00000338  00000+0  75549-5 0  9114
2 20335  51.6466  31.9149 0014528 228.4069 131.6071 15.58914643469634
1 20335U 89093A   94127.82156066 -.00010563  00000+0 -12998-3 0  9111
2 20335  51.6478  28.3758 0014156 231.5874 128.3860 15.58909700469748
1 20335U 89093A   94127.82156066 -.00010839  00000-0 -12999-3 0  9119
2 20335  51.6478  28.3758 0014156 231.5875 128.3860 15.58909699469746
1 20335U 89093A   94128.78313645 -.00001887  00000+0 -20449-4 0  9126
2 20335  51.6457  23.5490 0014306 234.9319 125.1391 15.58928139469890
1 20335U 89093A   94128.78313645 -.00002151  00000-0 -20450-4 0  9124
2 20335  51.6457  23.5490 0014306 234.9320 125.1391 15.58928140469894
1 20335U 89093A   94129.87288508 -.00010376  00000+0 -12747-3 0  9131
2 20335  51.6483  18.0770 0014501 238.4741 121.5204 15.58927065470065
1 20335U 89093A   94130.83444387 -.00002874  00000-0 -29537-4 0  9139
2 20335  51.6476  13.2498 0014142 241.9600 118.0945 15.58943447470217
1 20335U 89093A   94130.83444387 -.00002613  00000+0 -29536-4 0  9149
2 20335  51.6476  13.2498 0014142 241.9599 118.0945 15.58943449470216
